STARLINK-32678          
1 62309U 24239J   26162.13730331  .00063650  00000+0  19397-2 0  9998
2 62309  53.1566 106.9066 0001664 102.5191 257.5997 15.33393421 83876
STARLINK-32696          
1 62310U 24239K   26162.15765644  .00024709  00000+0  73992-3 0  9991
2 62310  53.1586 119.1136 0000922  68.0211 292.0889 15.34404269 83709
STARLINK-32700          
1 62311U 24239L   26162.16340523  .00012912  00000+0  44758-3 0  9999
2 62311  53.1579 107.0657 0001097  77.9667 282.1457 15.30180907 83868
STARLINK-32698          
1 62312U 24239M   26162.17237127  .00063030  00000+0  18572-2 0  9997
2 62312  53.1576 119.2007 0001150 104.1875 255.9256 15.34464915 83700
STARLINK-32634          
1 62313U 24239N   26162.13491868  .00020887  00000+0  71540-3 0  9996
2 62313  53.1572 106.8934 0001158  90.6534 269.4600 15.30197995 83875
STARLINK-32651          
1 62314U 24239P   26162.83335647  .00050262  00000+0  15308-2 0  9995
2 62314  53.1595 116.5180 0000999  70.9833 132.4947 15.33518521  5903
STARLINK-32627          
1 62315U 24239Q   26162.14510417  .00026071  00000+0  77877-3 0  9991
2 62315  53.1615 119.6961 0001148  94.2190 265.8944 15.34452464 83694
STARLINK-32596          
1 62316U 24239R   26162.16186634  .00021726  00000+0  65232-3 0  9998
2 62316  53.1573 119.1355 0001221  54.5504 305.5612 15.34397437 83704
STARLINK-32519          
1 62317U 24239S   26162.83335647  .00047228  00000+0  15239-2 0  9999
2 62317  53.1598 103.4867 0001483  87.7954 241.7330 15.31703137  5902
STARLINK-32527          
1 62319U 24239U   26162.12224288  .00021084  00000+0  72148-3 0  9996
2 62319  53.1578 106.8099 0001359  82.7854 277.3301 15.30222411 83877
STARLINK-32481          
1 62320U 24239V   26162.12858677  .00018484  00000+0  63451-3 0  9990
2 62320  53.1589 106.8580 0001234 107.5152 252.5984 15.30207001 83875
STARLINK-32645          
1 62321U 24239W   26162.13282449  .00017714  00000+0  60851-3 0  9996
2 62321  53.1573 106.8792 0000956 102.0195 258.0913 15.30213808 83876
STARLINK-32654          
1 62322U 24239X   26162.15976042  .00014693  00000+0  44508-3 0  9992
2 62322  53.1591 119.1202 0001457  88.9978 271.1191 15.34405220 83709
STARLINK-11444 [DTC]    
1 62409U 24249A   26161.75331998  .00122375  00000+0  94308-3 0  9999
2 62409  43.0019 327.0125 0002748 272.5818  87.4735 15.70841040 84112
STARLINK-11493 [DTC]    
1 62410U 24249B   26161.75862860  .00106376  00000+0  82176-3 0  9991
2 62410  42.9999 327.0547 0002112 261.2095  98.8534 15.70844228 84118
STARLINK-11453 [DTC]    
1 62411U 24249C   26162.17185161  .00159087  00000+0  12191-2 0  9997
2 62411  42.9997 324.1157 0002668 269.2275  90.8287 15.70849704 84184
STARLINK-11441 [DTC]    
1 62413U 24249E   26160.75709501  .00034529  00000+0  27126-3 0  9999
2 62413  42.9993 332.4169 0001949 259.1036 100.9612 15.70857688 83961
STARLINK-11445 [DTC]    
1 62414U 24249F   26162.16655065  .00095943  00000+0  73896-3 0  9994
2 62414  42.9988 324.0724 0001321 302.5851  57.4889 15.70956892 84186
STARLINK-11355 [DTC]    
1 62415U 24249G   26162.60631201  .00072494  00000+0  56290-3 0  9995
2 62415  43.0001 321.3357 0002212 228.2711 131.7968 15.70866055 84259
STARLINK-11446 [DTC]    
1 62416U 24249H   26162.66668980 -.00188461  00000+0 -14934-2 0  9998
2 62416  42.9994 320.7603 0001574 276.7795 155.2634 15.70922764  6004
STARLINK-11428 [DTC]    
1 62417U 24249J   26161.74270105  .00180970  00000+0  13791-2 0  9990
2 62417  42.9989 326.9321 0002662 260.1923  99.8644 15.70912397 84116
STARLINK-11447 [DTC]    
1 62418U 24249K   26162.15062338  .00210308  00000+0  15821-2 0  9999
2 62418  42.9991 323.9420 0002204 302.2147  57.8507 15.71128048 84187
STARLINK-11434 [DTC]    
1 62420U 24249M   26161.62084278  .00148737  00000+0  11401-2 0  9996
2 62420  42.9989 327.7321 0002100 273.5126  86.5501 15.70878548 84090
STARLINK-11461 [DTC]    
1 62421U 24249N   26161.73739052  .00175963  00000+0  13420-2 0  9990
2 62421  42.9973 326.8793 0003110 265.3378  94.7134 15.70908585 84118
STARLINK-32692          
1 62422U 24249P   26162.66451249  .00015554  00000+0  57366-3 0  9990
2 62422  42.9901 151.3133 0002139 274.5517  85.5090 15.27572849 82092
STARLINK-32680          
1 62423U 24249Q   26162.66276088  .00014097  00000+0  52055-3 0  9998
2 62423  43.0017 143.5369 0001119 270.7778  89.2945 15.27595850 82188
STARLINK-32638          
1 62424U 24249R   26162.28584032  .00013248  00000+0  48990-3 0  9998
2 62424  42.9878 157.1184 0001073 146.1173 213.9747 15.27592100 81991
STARLINK-32283          
1 62425U 24249S   26162.25036519  .00023089  00000+0  84537-3 0  9999
2 62425  43.0001 142.1313 0003724 289.1990  70.8458 15.27597625 82166
STARLINK-32676          
1 62426U 24249T   26162.22946957  .00021343  00000+0  78248-3 0  9996
2 62426  43.0024 146.3003 0000368 162.1456 197.9409 15.27596743 82114
STARLINK-32659          
1 62427U 24249U   26162.67301338  .00017011  00000+0  62534-3 0  9992
2 62427  43.0097 143.6124 0005034 272.4791  87.5484 15.27620124 82186
