OBJECT_NAME,OBJECT_ID,EPOCH,MEAN_MOTION,ECCENTRICITY,INCLINATION,RA_OF_ASC_NODE,ARG_OF_PERICENTER,MEAN_ANOMALY,EPHEMERIS_TYPE,CLASSIFICATION_TYPE,NORAD_CAT_ID,ELEMENT_SET_NO,REV_AT_EPOCH,BSTAR,MEAN_MOTION_DOT,MEAN_MOTION_DDOT
STARLINK-32678,2024-239J,2026-06-11T03:17:43.005984,15.33393421,.00016647,53.1566,106.9066,102.5191,257.5997,0,U,62309,999,8387,.1939726E-2,.6365E-3,0
STARLINK-32696,2024-239K,2026-06-11T03:47:01.516416,15.34404269,.0000922,53.1586,119.1136,68.0211,292.0889,0,U,62310,999,8370,.73991838E-3,.24709E-3,0
STARLINK-32700,2024-239L,2026-06-11T03:55:18.211872,15.30180907,.00010979,53.1579,107.0657,77.9667,282.1457,0,U,62311,999,8386,.44758013E-3,.12912E-3,0
STARLINK-32698,2024-239M,2026-06-11T04:08:12.877728,15.34464915,.00011508,53.1576,119.2007,104.1875,255.9256,0,U,62312,999,8370,.18571736E-2,.6303E-3,0
STARLINK-32634,2024-239N,2026-06-11T03:14:16.973952,15.30197995,.00011585,53.1572,106.8934,90.6534,269.4600,0,U,62313,999,8387,.71539703E-3,.20887E-3,0
STARLINK-32651,2024-239P,2026-06-11T20:00:01.999008,15.33518521,.0000999,53.1595,116.5180,70.9833,132.4947,0,U,62314,999,590,.15308E-2,.50262E-3,0
STARLINK-32627,2024-239Q,2026-06-11T03:28:57.000288,15.34452464,.0001148,53.1615,119.6961,94.2190,265.8944,0,U,62315,999,8369,.77877E-3,.26071E-3,0
STARLINK-32596,2024-239R,2026-06-11T03:53:05.251776,15.34397437,.00012212,53.1573,119.1355,54.5504,305.5612,0,U,62316,999,8370,.65232449E-3,.21726E-3,0
STARLINK-32519,2024-239S,2026-06-11T20:00:01.999008,15.31703137,.0001483,53.1598,103.4867,87.7954,241.7330,0,U,62317,999,590,.15239E-2,.47228E-3,0
STARLINK-32527,2024-239U,2026-06-11T02:56:01.784832,15.30222411,.00013592,53.1578,106.8099,82.7854,277.3301,0,U,62319,999,8387,.72147501E-3,.21084E-3,0
STARLINK-32481,2024-239V,2026-06-11T03:05:09.896928,15.30207001,.0001234,53.1589,106.8580,107.5152,252.5984,0,U,62320,999,8387,.6345073E-3,.18484E-3,0
STARLINK-32645,2024-239W,2026-06-11T03:11:16.035936,15.30213808,.00009566,53.1573,106.8792,102.0195,258.0913,0,U,62321,999,8387,.6085108E-3,.17714E-3,0
STARLINK-32654,2024-239X,2026-06-11T03:50:03.300288,15.34405220,.00014571,53.1591,119.1202,88.9978,271.1191,0,U,62322,999,8370,.44507791E-3,.14693E-3,0
STARLINK-11444 [DTC],2024-249A,2026-06-10T18:04:46.846272,15.70841040,.00027487,43.0019,327.0125,272.5818,87.4735,0,U,62409,999,8411,.94308301E-3,.122375E-2,0
STARLINK-11493 [DTC],2024-249B,2026-06-10T18:12:25.511040,15.70844228,.00021122,42.9999,327.0547,261.2095,98.8534,0,U,62410,999,8411,.82175903E-3,.106376E-2,0
STARLINK-11453 [DTC],2024-249C,2026-06-11T04:07:27.979104,15.70849704,.00026683,42.9997,324.1157,269.2275,90.8287,0,U,62411,999,8418,.12191243E-2,.159087E-2,0
STARLINK-11441 [DTC],2024-249E,2026-06-09T18:10:13.008864,15.70857688,.00019497,42.9993,332.4169,259.1036,100.9612,0,U,62413,999,8396,.271257E-3,.34529E-3,0
STARLINK-11445 [DTC],2024-249F,2026-06-11T03:59:49.976160,15.70956892,.00013219,42.9988,324.0724,302.5851,57.4889,0,U,62414,999,8418,.73896495E-3,.95943E-3,0
STARLINK-11355 [DTC],2024-249G,2026-06-11T14:33:05.357664,15.70866055,.0002212,43.0001,321.3357,228.2711,131.7968,0,U,62415,999,8425,.5629E-3,.72494E-3,0
STARLINK-11446 [DTC],2024-249H,2026-06-11T16:00:01.998720,15.70922764,.0001574,42.9994,320.7603,276.7795,155.2634,0,U,62416,999,600,-.14934E-2,-.188461E-2,0
STARLINK-11428 [DTC],2024-249J,2026-06-10T17:49:29.370720,15.70912397,.00026625,42.9989,326.9321,260.1923,99.8644,0,U,62417,999,8411,.13790555E-2,.18097E-2,0
STARLINK-11447 [DTC],2024-249K,2026-06-11T03:36:53.860032,15.71128048,.0002204,42.9991,323.9420,302.2147,57.8507,0,U,62418,999,8418,.15820599E-2,.210308E-2,0
STARLINK-11434 [DTC],2024-249M,2026-06-10T14:54:00.816192,15.70878548,.00021006,42.9989,327.7321,273.5126,86.5501,0,U,62420,999,8409,.11401272E-2,.148737E-2,0
STARLINK-11461 [DTC],2024-249N,2026-06-10T17:41:50.540928,15.70908585,.00031101,42.9973,326.8793,265.3378,94.7134,0,U,62421,999,8411,.13419549E-2,.175963E-2,0
STARLINK-32692,2024-249P,2026-06-11T15:56:53.879136,15.27572849,.0002139,42.9901,151.3133,274.5517,85.5090,0,U,62422,999,8209,.57366E-3,.15554E-3,0
STARLINK-32680,2024-249Q,2026-06-11T15:54:22.540032,15.27595850,.0001119,43.0017,143.5369,270.7778,89.2945,0,U,62423,999,8218,.52055E-3,.14097E-3,0
STARLINK-32638,2024-249R,2026-06-11T06:51:36.603648,15.27592100,.0001073,42.9878,157.1184,146.1173,213.9747,0,U,62424,999,8199,.4899E-3,.13248E-3,0
STARLINK-32283,2024-249S,2026-06-11T06:00:31.552416,15.27597625,.0003724,43.0001,142.1313,289.1990,70.8458,0,U,62425,999,8216,.84537E-3,.23089E-3,0
STARLINK-32676,2024-249T,2026-06-11T05:30:26.170848,15.27596743,.00003689,43.0024,146.3003,162.1456,197.9409,0,U,62426,999,8211,.78247735E-3,.21343E-3,0
STARLINK-32659,2024-249U,2026-06-11T16:09:08.356032,15.27620124,.0005034,43.0097,143.6124,272.4791,87.5484,0,U,62427,999,8218,.62534E-3,.17011E-3,0
